COSMOS 1812             
1 17295U 87003A   26061.93981992  .01654884 -12116-5  76322-3 0  9993
2 17295  82.4722 203.3427 0007366 288.5347  71.5142 16.21806526143398
IRIDIUM 51              
1 25262U 98018A   26061.81547270  .00601208  15490-3  12882-2 0  9994
2 25262  86.3543 284.2649 0018320 312.6025  47.3714 15.98263943487258
CZ-2D DEB               
1 31409U 05024J   26060.90543068  .00239460  23346-4  72484-3 0  9991
2 31409  97.1482 103.0739 0004089 145.2826 214.8716 15.92111318117181
ZIYUAN 3-01 (ZY 3-01)   
1 38046U 12001A   26061.87000047  .00400427  67235-4  94385-3 0  9992
2 38046  97.1546 136.3605 0001582 245.7463 114.3649 15.96838851787617
HUMSAT-D                
1 39433U 13066T   26061.56297787  .00877160  35625-3  19629-2 0  9996
2 39433  97.4841  73.9995 0006834 161.4567 198.6960 15.97804823670324
H-2A DEB                
1 43675U 18084E   26061.80074364  .01053832  53161-3  24552-2 0  9994
2 43675  98.0079 277.4869 0003218 303.1909  56.9057 15.97147042402022
SPACEBEE-7              
1 43816U 18099BL  26061.75586284  .01193306  78424-3  19892-2 0  9991
2 43816  97.4408 148.0919 0007821 270.3555  89.6828 16.03076494398105
STARLINK-1112           
1 44925U 20001M   26062.01736829  .00693267  24760-3  97397-3 0  9992
2 44925  53.0345 275.7139 0004134 260.1442  99.9123 16.05219074340253
STARLINK-1210           
1 45207U 20012AF  26061.92582021  .03202188  12006-4  86752-3 0  9995
2 45207  53.0007 293.3318 0006635 252.6321 107.3994 16.27375304335838
STARLINK-1294           
1 45551U 20025W   26062.03518156  .10608973  12427-4  52596-3 0  9998
2 45551  53.0153   7.7716 0002885 246.0899 113.9847 16.43022261325895
STARLINK-1484           
1 45756U 20038AC  26061.91668981  .00428958  86669-4  97254-3 0  9998
2 45756  52.9990  91.5999 0006855  32.7054  67.3976 15.96975423  6061
STARLINK-1601           
1 46120U 20057D   26061.92011624  .02747533  11881-4  11060-2 0  9991
2 46120  53.0307 289.3063 0006756 251.0894 108.9413 16.22757357307132
STARLINK-1710           
1 46330U 20062F   26062.01499503  .06650806  12154-4  96690-3 0  9994
2 46330  53.0177 310.7119 0006436 242.9176 117.1211 16.33819389304656
STARLINK-1723           
1 46333U 20062J   26062.02798030  .01708084  25234-2  13295-2 0  9992
2 46333  53.0370 356.4624 0006127 196.4984 163.5853 16.14736956304002
STARLINK-1738           
1 46336U 20062M   26061.83335647  .00401154  78533-4  82479-3 0  9994
2 46336  53.0293 315.8358 0005591 130.6968 297.5526 15.98751496  6032
STARLINK-1750           
1 46337U 20062N   26061.91778823  .08285190  12208-4  87715-3 0  9994
2 46337  53.0231 324.6442 0007193 235.8147 124.2216 16.36733543304448
