[{"OBJECT_NAME":"COSMOS 1812","OBJECT_ID":"1987-003A","EPOCH":"2026-03-02T22:33:20.441088","MEAN_MOTION":16.21806526,"ECCENTRICITY":0.0007366,"INCLINATION":82.4722,"RA_OF_ASC_NODE":203.3427,"ARG_OF_PERICENTER":288.5347,"MEAN_ANOMALY":71.5142,"EPHEMERIS_TYPE":0,"CLASSIFICATION_TYPE":"U","NORAD_CAT_ID":17295,"ELEMENT_SET_NO":999,"REV_AT_EPOCH":14339,"BSTAR":0.00076322,"MEAN_MOTION_DOT":0.01654884,"MEAN_MOTION_DDOT":-1.2116e-6},{"OBJECT_NAME":"IRIDIUM 51","OBJECT_ID":"1998-018A","EPOCH":"2026-03-02T19:34:16.841280","MEAN_MOTION":15.98263943,"ECCENTRICITY":0.001832,"INCLINATION":86.3543,"RA_OF_ASC_NODE":284.2649,"ARG_OF_PERICENTER":312.6025,"MEAN_ANOMALY":47.3714,"EPHEMERIS_TYPE":0,"CLASSIFICATION_TYPE":"U","NORAD_CAT_ID":25262,"ELEMENT_SET_NO":999,"REV_AT_EPOCH":48725,"BSTAR":0.0012882,"MEAN_MOTION_DOT":0.00601208,"MEAN_MOTION_DDOT":0.0001549},{"OBJECT_NAME":"CZ-2D DEB","OBJECT_ID":"2005-024J","EPOCH":"2026-03-01T21:43:49.210752","MEAN_MOTION":15.92111318,"ECCENTRICITY":0.0004089,"INCLINATION":97.1482,"RA_OF_ASC_NODE":103.0739,"ARG_OF_PERICENTER":145.2826,"MEAN_ANOMALY":214.8716,"EPHEMERIS_TYPE":0,"CLASSIFICATION_TYPE":"U","NORAD_CAT_ID":31409,"ELEMENT_SET_NO":999,"REV_AT_EPOCH":11718,"BSTAR":0.00072484,"MEAN_MOTION_DOT":0.0023946,"MEAN_MOTION_DDOT":2.3346e-5},{"OBJECT_NAME":"ZIYUAN 3-01 (ZY 3-01)","OBJECT_ID":"2012-001A","EPOCH":"2026-03-02T20:52:48.040608","MEAN_MOTION":15.96838851,"ECCENTRICITY":0.0001582,"INCLINATION":97.1546,"RA_OF_ASC_NODE":136.3605,"ARG_OF_PERICENTER":245.7463,"MEAN_ANOMALY":114.3649,"EPHEMERIS_TYPE":0,"CLASSIFICATION_TYPE":"U","NORAD_CAT_ID":38046,"ELEMENT_SET_NO":999,"REV_AT_EPOCH":78761,"BSTAR":0.00094385,"MEAN_MOTION_DOT":0.00400427,"MEAN_MOTION_DDOT":6.7235e-5},{"OBJECT_NAME":"HUMSAT-D","OBJECT_ID":"2013-066T","EPOCH":"2026-03-02T13:30:41.287968","MEAN_MOTION":15.97804823,"ECCENTRICITY":0.0006834,"INCLINATION":97.4841,"RA_OF_ASC_NODE":73.9995,"ARG_OF_PERICENTER":161.4567,"MEAN_ANOMALY":198.696,"EPHEMERIS_TYPE":0,"CLASSIFICATION_TYPE":"U","NORAD_CAT_ID":39433,"ELEMENT_SET_NO":999,"REV_AT_EPOCH":67032,"BSTAR":0.0019629,"MEAN_MOTION_DOT":0.0087716,"MEAN_MOTION_DDOT":0.00035625},{"OBJECT_NAME":"H-2A DEB","OBJECT_ID":"2018-084E","EPOCH":"2026-03-02T19:13:04.250496","MEAN_MOTION":15.97147042,"ECCENTRICITY":0.0003218,"INCLINATION":98.0079,"RA_OF_ASC_NODE":277.4869,"ARG_OF_PERICENTER":303.1909,"MEAN_ANOMALY":56.9057,"EPHEMERIS_TYPE":0,"CLASSIFICATION_TYPE":"U","NORAD_CAT_ID":43675,"ELEMENT_SET_NO":999,"REV_AT_EPOCH":40202,"BSTAR":0.0024552,"MEAN_MOTION_DOT":0.01053832,"MEAN_MOTION_DDOT":0.00053161},{"OBJECT_NAME":"SPACEBEE-7","OBJECT_ID":"2018-099BL","EPOCH":"2026-03-02T18:08:26.549376","MEAN_MOTION":16.03076494,"ECCENTRICITY":0.0007821,"INCLINATION":97.4408,"RA_OF_ASC_NODE":148.0919,"ARG_OF_PERICENTER":270.3555,"MEAN_ANOMALY":89.6828,"EPHEMERIS_TYPE":0,"CLASSIFICATION_TYPE":"U","NORAD_CAT_ID":43816,"ELEMENT_SET_NO":999,"REV_AT_EPOCH":39810,"BSTAR":0.0019892,"MEAN_MOTION_DOT":0.01193306,"MEAN_MOTION_DDOT":0.00078424},{"OBJECT_NAME":"STARLINK-1112","OBJECT_ID":"2020-001M","EPOCH":"2026-03-03T00:25:00.620256","MEAN_MOTION":16.05219074,"ECCENTRICITY":0.0004134,"INCLINATION":53.0345,"RA_OF_ASC_NODE":275.7139,"ARG_OF_PERICENTER":260.1442,"MEAN_ANOMALY":99.9123,"EPHEMERIS_TYPE":0,"CLASSIFICATION_TYPE":"U","NORAD_CAT_ID":44925,"ELEMENT_SET_NO":999,"REV_AT_EPOCH":34025,"BSTAR":0.00097397,"MEAN_MOTION_DOT":0.00693267,"MEAN_MOTION_DDOT":0.0002476},{"OBJECT_NAME":"STARLINK-1210","OBJECT_ID":"2020-012AF","EPOCH":"2026-03-02T22:13:10.866144","MEAN_MOTION":16.27375304,"ECCENTRICITY":0.0006635,"INCLINATION":53.0007,"RA_OF_ASC_NODE":293.3318,"ARG_OF_PERICENTER":252.6321,"MEAN_ANOMALY":107.3994,"EPHEMERIS_TYPE":0,"CLASSIFICATION_TYPE":"U","NORAD_CAT_ID":45207,"ELEMENT_SET_NO":999,"REV_AT_EPOCH":33583,"BSTAR":0.00086752,"MEAN_MOTION_DOT":0.03202188,"MEAN_MOTION_DDOT":1.2006e-5},{"OBJECT_NAME":"STARLINK-1294","OBJECT_ID":"2020-025W","EPOCH":"2026-03-03T00:50:39.686784","MEAN_MOTION":16.43022261,"ECCENTRICITY":0.0002885,"INCLINATION":53.0153,"RA_OF_ASC_NODE":7.7716,"ARG_OF_PERICENTER":246.0899,"MEAN_ANOMALY":113.9847,"EPHEMERIS_TYPE":0,"CLASSIFICATION_TYPE":"U","NORAD_CAT_ID":45551,"ELEMENT_SET_NO":999,"REV_AT_EPOCH":32589,"BSTAR":0.00052596,"MEAN_MOTION_DOT":0.10608973,"MEAN_MOTION_DDOT":1.2427e-5},{"OBJECT_NAME":"STARLINK-1484","OBJECT_ID":"2020-038AC","EPOCH":"2026-03-02T22:00:01.999584","MEAN_MOTION":15.96975423,"ECCENTRICITY":0.0006855,"INCLINATION":52.999,"RA_OF_ASC_NODE":91.5999,"ARG_OF_PERICENTER":32.7054,"MEAN_ANOMALY":67.3976,"EPHEMERIS_TYPE":0,"CLASSIFICATION_TYPE":"U","NORAD_CAT_ID":45756,"ELEMENT_SET_NO":999,"REV_AT_EPOCH":606,"BSTAR":0.00097254,"MEAN_MOTION_DOT":0.00428958,"MEAN_MOTION_DDOT":8.6669e-5},{"OBJECT_NAME":"STARLINK-1601","OBJECT_ID":"2020-057D","EPOCH":"2026-03-02T22:04:58.043136","MEAN_MOTION":16.22757357,"ECCENTRICITY":0.0006756,"INCLINATION":53.0307,"RA_OF_ASC_NODE":289.3063,"ARG_OF_PERICENTER":251.0894,"MEAN_ANOMALY":108.9413,"EPHEMERIS_TYPE":0,"CLASSIFICATION_TYPE":"U","NORAD_CAT_ID":46120,"ELEMENT_SET_NO":999,"REV_AT_EPOCH":30713,"BSTAR":0.001106,"MEAN_MOTION_DOT":0.02747533,"MEAN_MOTION_DDOT":1.1881e-5},{"OBJECT_NAME":"STARLINK-1710","OBJECT_ID":"2020-062F","EPOCH":"2026-03-03T00:21:35.570592","MEAN_MOTION":16.33819389,"ECCENTRICITY":0.0006436,"INCLINATION":53.0177,"RA_OF_ASC_NODE":310.7119,"ARG_OF_PERICENTER":242.9176,"MEAN_ANOMALY":117.1211,"EPHEMERIS_TYPE":0,"CLASSIFICATION_TYPE":"U","NORAD_CAT_ID":46330,"ELEMENT_SET_NO":999,"REV_AT_EPOCH":30465,"BSTAR":0.0009669,"MEAN_MOTION_DOT":0.06650806,"MEAN_MOTION_DDOT":1.2154e-5},{"OBJECT_NAME":"STARLINK-1723","OBJECT_ID":"2020-062J","EPOCH":"2026-03-03T00:40:17.497920","MEAN_MOTION":16.14736956,"ECCENTRICITY":0.0006127,"INCLINATION":53.037,"RA_OF_ASC_NODE":356.4624,"ARG_OF_PERICENTER":196.4984,"MEAN_ANOMALY":163.5853,"EPHEMERIS_TYPE":0,"CLASSIFICATION_TYPE":"U","NORAD_CAT_ID":46333,"ELEMENT_SET_NO":999,"REV_AT_EPOCH":30400,"BSTAR":0.0013295,"MEAN_MOTION_DOT":0.01708084,"MEAN_MOTION_DDOT":0.0025234},{"OBJECT_NAME":"STARLINK-1738","OBJECT_ID":"2020-062M","EPOCH":"2026-03-02T20:00:01.999008","MEAN_MOTION":15.98751496,"ECCENTRICITY":0.0005591,"INCLINATION":53.0293,"RA_OF_ASC_NODE":315.8358,"ARG_OF_PERICENTER":130.6968,"MEAN_ANOMALY":297.5526,"EPHEMERIS_TYPE":0,"CLASSIFICATION_TYPE":"U","NORAD_CAT_ID":46336,"ELEMENT_SET_NO":999,"REV_AT_EPOCH":603,"BSTAR":0.00082479,"MEAN_MOTION_DOT":0.00401154,"MEAN_MOTION_DDOT":7.8533e-5},{"OBJECT_NAME":"STARLINK-1750","OBJECT_ID":"2020-062N","EPOCH":"2026-03-02T22:01:36.903072","MEAN_MOTION":16.36733543,"ECCENTRICITY":0.0007193,"INCLINATION":53.0231,"RA_OF_ASC_NODE":324.6442,"ARG_OF_PERICENTER":235.8147,"MEAN_ANOMALY":124.2216,"EPHEMERIS_TYPE":0,"CLASSIFICATION_TYPE":"U","NORAD_CAT_ID":46337,"ELEMENT_SET_NO":999,"REV_AT_EPOCH":30444,"BSTAR":0.00087715,"MEAN_MOTION_DOT":0.0828519,"MEAN_MOTION_DDOT":1.2208e-5}]
